[{"OBJECT_NAME":"STARLINK-3369","OBJECT_ID":"2022-005AQ","EPOCH":"2026-03-09T22:22:22.044576","MEAN_MOTION":15.18998951,"ECCENTRICITY":0.00032386,"INCLINATION":53.2137,"RA_OF_ASC_NODE":280.745,"ARG_OF_PERICENTER":175.5204,"MEAN_ANOMALY":184.5822,"EPHEMERIS_TYPE":0,"CLASSIFICATION_TYPE":"U","NORAD_CAT_ID":51142,"ELEMENT_SET_NO":999,"REV_AT_EPOCH":22901,"BSTAR":0.0020382455,"MEAN_MOTION_DOT":0.00043116,"MEAN_MOTION_DDOT":0},{"OBJECT_NAME":"HAWK-12B","OBJECT_ID":"2025-138B","EPOCH":"2026-03-09T22:55:04.503936","MEAN_MOTION":15.17351346,"ECCENTRICITY":0.00148402,"INCLINATION":97.4491,"RA_OF_ASC_NODE":73.6322,"ARG_OF_PERICENTER":119.8702,"MEAN_ANOMALY":240.4008,"EPHEMERIS_TYPE":0,"CLASSIFICATION_TYPE":"U","NORAD_CAT_ID":64622,"ELEMENT_SET_NO":999,"REV_AT_EPOCH":3881,"BSTAR":0.00030366166,"MEAN_MOTION_DOT":6.011e-5,"MEAN_MOTION_DDOT":0}]
